0 IRIDIUM 921
1 24873U 97034E   24002.52539372  .00015764  00000-0  54845-3 0  9993
2 24873  86.3857   9.9113 0006510 134.4650 225.7132 15.29567294449639
0 IRIDIUM 26
1 24903U 97043A   24002.95893008  .00000541  00000-0  17890-3 0  9999
2 24903  86.3968 333.5158 0002403  84.7273 275.4198 14.36142180380476
0 IRIDIUM 22
1 24907U 97043E   24002.95633431  .00000498  00000-0  16813-3 0  9990
2 24907  86.3971 336.6212 0002238  90.1545 269.9908 14.35043639380563
0 DUMMY MASS 1
1 24925U 97048A   24002.54060152  .00000481  00000-0  51887-4 0  9997
2 24925  86.3341  20.9604 0005228 212.7464 147.3437 14.85983835426154
0 DUMMY MASS 2
1 24926U 97048B   24003.08904492  .00000454  00000-0  49049-4 0  9999
2 24926  86.3340  22.2206 0005710 226.6463 133.4286 14.85744833426269
0 IRIDIUM 29
1 24944U 97051A   24003.08148773  .00000507  00000-0  16972-3 0  9992
2 24944  86.3959   6.5167 0002167  97.2907 262.8536 14.35501979377272
0 IRIDIUM 33
1 24946U 97051C   24002.95598624  .00000319  00000-0  10670-3 0  9993
2 24946  86.3874   5.8357 0008621  26.3654 333.7979 14.34213880376588
0 IRIDIUM 28
1 24948U 97051E   24002.91631416  .00000477  00000-0  15613-3 0  9995
2 24948  86.3966   4.4076 0002455  81.3899 278.7576 14.36441746377551
